CCSDS_OMM_VERS = 2.0
CREATION_DATE  = 
ORIGINATOR     = 

OBJECT_NAME    = SL-14 R/B
OBJECT_ID      = 1991-042B
CENTER_NAME    = EARTH
REF_FRAME      = TEME
TIME_SYSTEM    = UTC
MEAN_ELEMENT_THEORY = SGP/SGP4

EPOCH          = 2026-02-03T02:47:58.281792
MEAN_MOTION    = 14.81795955
ECCENTRICITY   = .00170326
INCLINATION    = 82.4904
RA_OF_ASC_NODE = 252.6104
ARG_OF_PERICENTER = 359.9963
MEAN_ANOMALY   = 0.1247

EPHEMERIS_TYPE = 0
CLASSIFICATION_TYPE = U
NORAD_CAT_ID   = 21423
ELEMENT_SET_NO = 999
REV_AT_EPOCH   = 84795
BSTAR          = .4600884E-4
MEAN_MOTION_DOT = .387E-5
MEAN_MOTION_DDOT = 0

CCSDS_OMM_VERS = 2.0
CREATION_DATE  = 
ORIGINATOR     = 

OBJECT_NAME    = ERS-1
OBJECT_ID      = 1991-050A
CENTER_NAME    = EARTH
REF_FRAME      = TEME
TIME_SYSTEM    = UTC
MEAN_ELEMENT_THEORY = SGP/SGP4

EPOCH          = 2026-02-03T11:56:36.484800
MEAN_MOTION    = 14.39420049
ECCENTRICITY   = .0031044
INCLINATION    = 98.7896
RA_OF_ASC_NODE = 51.8725
ARG_OF_PERICENTER = 304.8352
MEAN_ANOMALY   = 54.9916

EPHEMERIS_TYPE = 0
CLASSIFICATION_TYPE = U
NORAD_CAT_ID   = 21574
ELEMENT_SET_NO = 999
REV_AT_EPOCH   = 81081
BSTAR          = .14046E-3
MEAN_MOTION_DOT = .393E-5
MEAN_MOTION_DDOT = 0

CCSDS_OMM_VERS = 2.0
CREATION_DATE  = 
ORIGINATOR     = 

OBJECT_NAME    = ARIANE 40 R/B
OBJECT_ID      = 1991-050F
CENTER_NAME    = EARTH
REF_FRAME      = TEME
TIME_SYSTEM    = UTC
MEAN_ELEMENT_THEORY = SGP/SGP4

EPOCH          = 2026-02-03T10:07:26.887008
MEAN_MOTION    = 14.42866838
ECCENTRICITY   = .0003509
INCLINATION    = 98.2084
RA_OF_ASC_NODE = 87.9324
ARG_OF_PERICENTER = 158.5366
MEAN_ANOMALY   = 201.5973

EPHEMERIS_TYPE = 0
CLASSIFICATION_TYPE = U
NORAD_CAT_ID   = 21610
ELEMENT_SET_NO = 999
REV_AT_EPOCH   = 81405
BSTAR          = .11406E-3
MEAN_MOTION_DOT = .339E-5
MEAN_MOTION_DDOT = 0

CCSDS_OMM_VERS = 2.0
CREATION_DATE  = 
ORIGINATOR     = 

OBJECT_NAME    = INTERCOSMOS 25
OBJECT_ID      = 1991-086A
CENTER_NAME    = EARTH
REF_FRAME      = TEME
TIME_SYSTEM    = UTC
MEAN_ELEMENT_THEORY = SGP/SGP4

EPOCH          = 2026-02-03T07:28:27.506208
MEAN_MOTION    = 12.11905617
ECCENTRICITY   = .1486539
INCLINATION    = 82.6090
RA_OF_ASC_NODE = 330.7826
ARG_OF_PERICENTER = 191.0018
MEAN_ANOMALY   = 165.4870

EPHEMERIS_TYPE = 0
CLASSIFICATION_TYPE = U
NORAD_CAT_ID   = 21819
ELEMENT_SET_NO = 999
REV_AT_EPOCH   = 49252
BSTAR          = .1394E-3
MEAN_MOTION_DOT = .723E-5
MEAN_MOTION_DDOT = 0

CCSDS_OMM_VERS = 2.0
CREATION_DATE  = 
ORIGINATOR     = 

OBJECT_NAME    = SL-8 R/B
OBJECT_ID      = 1992-008B
CENTER_NAME    = EARTH
REF_FRAME      = TEME
TIME_SYSTEM    = UTC
MEAN_ELEMENT_THEORY = SGP/SGP4

EPOCH          = 2026-02-03T06:21:59.957856
MEAN_MOTION    = 13.75969182
ECCENTRICITY   = .0033565
INCLINATION    = 82.9274
RA_OF_ASC_NODE = 293.3861
ARG_OF_PERICENTER = 229.6514
MEAN_ANOMALY   = 247.6008

EPHEMERIS_TYPE = 0
CLASSIFICATION_TYPE = U
NORAD_CAT_ID   = 21876
ELEMENT_SET_NO = 999
REV_AT_EPOCH   = 70468
BSTAR          = .66673E-4
MEAN_MOTION_DOT = .8E-6
MEAN_MOTION_DDOT = 0

CCSDS_OMM_VERS = 2.0
CREATION_DATE  = 
ORIGINATOR     = 

OBJECT_NAME    = SL-8 R/B
OBJECT_ID      = 1992-020B
CENTER_NAME    = EARTH
REF_FRAME      = TEME
TIME_SYSTEM    = UTC
MEAN_ELEMENT_THEORY = SGP/SGP4

EPOCH          = 2026-02-03T12:08:10.891968
MEAN_MOTION    = 13.75544000
ECCENTRICITY   = .0029612
INCLINATION    = 82.9321
RA_OF_ASC_NODE = 179.1348
ARG_OF_PERICENTER = 35.5000
MEAN_ANOMALY   = 30.3648

EPHEMERIS_TYPE = 0
CLASSIFICATION_TYPE = U
NORAD_CAT_ID   = 21938
ELEMENT_SET_NO = 999
REV_AT_EPOCH   = 69643
BSTAR          = .10214E-3
MEAN_MOTION_DOT = .114E-5
MEAN_MOTION_DDOT = 0

CCSDS_OMM_VERS = 2.0
CREATION_DATE  = 
ORIGINATOR     = 

OBJECT_NAME    = USA 81
OBJECT_ID      = 1992-023A
CENTER_NAME    = EARTH
REF_FRAME      = TEME
TIME_SYSTEM    = UTC
MEAN_ELEMENT_THEORY = SGP/SGP4

EPOCH          = 2026-02-03T10:16:50.844864
MEAN_MOTION    = 14.32354371
ECCENTRICITY   = .000248
INCLINATION    = 85.0119
RA_OF_ASC_NODE = 151.1954
ARG_OF_PERICENTER = 108.0803
MEAN_ANOMALY   = 252.0660

EPHEMERIS_TYPE = 0
CLASSIFICATION_TYPE = U
NORAD_CAT_ID   = 21949
ELEMENT_SET_NO = 999
REV_AT_EPOCH   = 8988
BSTAR          = .81503E-4
MEAN_MOTION_DOT = .24E-5
MEAN_MOTION_DDOT = 0

CCSDS_OMM_VERS = 2.0
CREATION_DATE  = 
ORIGINATOR     = 

OBJECT_NAME    = COSMOS 2219
OBJECT_ID      = 1992-076A
CENTER_NAME    = EARTH
REF_FRAME      = TEME
TIME_SYSTEM    = UTC
MEAN_ELEMENT_THEORY = SGP/SGP4

EPOCH          = 2026-02-03T11:53:54.381984
MEAN_MOTION    = 14.14077549
ECCENTRICITY   = .002056
INCLINATION    = 71.0591
RA_OF_ASC_NODE = 89.5541
ARG_OF_PERICENTER = 254.3919
MEAN_ANOMALY   = 105.4935

EPHEMERIS_TYPE = 0
CLASSIFICATION_TYPE = U
NORAD_CAT_ID   = 22219
ELEMENT_SET_NO = 999
REV_AT_EPOCH   = 71354
BSTAR          = -.8678E-4
MEAN_MOTION_DOT = -.213E-5
MEAN_MOTION_DDOT = 0

CCSDS_OMM_VERS = 2.0
CREATION_DATE  = 
ORIGINATOR     = 

OBJECT_NAME    = SL-16 R/B
OBJECT_ID      = 1992-076B
CENTER_NAME    = EARTH
REF_FRAME      = TEME
TIME_SYSTEM    = UTC
MEAN_ELEMENT_THEORY = SGP/SGP4

EPOCH          = 2026-02-03T09:46:12.076608
MEAN_MOTION    = 14.16853135
ECCENTRICITY   = .0011884
INCLINATION    = 70.9984
RA_OF_ASC_NODE = 260.5906
ARG_OF_PERICENTER = 156.6013
MEAN_ANOMALY   = 16.9312

EPHEMERIS_TYPE = 0
CLASSIFICATION_TYPE = U
NORAD_CAT_ID   = 22220
ELEMENT_SET_NO = 999
REV_AT_EPOCH   = 71697
BSTAR          = .17069E-3
MEAN_MOTION_DOT = .295E-5
MEAN_MOTION_DDOT = 0

CCSDS_OMM_VERS = 2.0
CREATION_DATE  = 
ORIGINATOR     = 

OBJECT_NAME    = COSMOS 2221
OBJECT_ID      = 1992-080A
CENTER_NAME    = EARTH
REF_FRAME      = TEME
TIME_SYSTEM    = UTC
MEAN_ELEMENT_THEORY = SGP/SGP4

EPOCH          = 2026-02-03T06:15:15.424416
MEAN_MOTION    = 14.96055249
ECCENTRICITY   = .001329
INCLINATION    = 82.5067
RA_OF_ASC_NODE = 312.0516
ARG_OF_PERICENTER = 313.9635
MEAN_ANOMALY   = 46.0490

EPHEMERIS_TYPE = 0
CLASSIFICATION_TYPE = U
NORAD_CAT_ID   = 22236
ELEMENT_SET_NO = 999
REV_AT_EPOCH   = 77564
BSTAR          = .2189E-3
MEAN_MOTION_DOT = .2487E-4
MEAN_MOTION_DDOT = 0

CCSDS_OMM_VERS = 2.0
CREATION_DATE  = 
ORIGINATOR     = 

OBJECT_NAME    = SL-16 R/B
OBJECT_ID      = 1992-093B
CENTER_NAME    = EARTH
REF_FRAME      = TEME
TIME_SYSTEM    = UTC
MEAN_ELEMENT_THEORY = SGP/SGP4

EPOCH          = 2026-02-03T11:08:46.269888
MEAN_MOTION    = 14.15442044
ECCENTRICITY   = .0005012
INCLINATION    = 71.0206
RA_OF_ASC_NODE = 76.1169
ARG_OF_PERICENTER = 329.3833
MEAN_ANOMALY   = 30.6997

EPHEMERIS_TYPE = 0
CLASSIFICATION_TYPE = U
NORAD_CAT_ID   = 22285
ELEMENT_SET_NO = 999
REV_AT_EPOCH   = 70831
BSTAR          = -.90658E-4
MEAN_MOTION_DOT = -.225E-5
MEAN_MOTION_DDOT = 0

CCSDS_OMM_VERS = 2.0
CREATION_DATE  = 
ORIGINATOR     = 

OBJECT_NAME    = COSMOS 2228
OBJECT_ID      = 1992-094A
CENTER_NAME    = EARTH
REF_FRAME      = TEME
TIME_SYSTEM    = UTC
MEAN_ELEMENT_THEORY = SGP/SGP4

EPOCH          = 2026-02-03T10:23:41.515296
MEAN_MOTION    = 14.97029591
ECCENTRICITY   = .0019393
INCLINATION    = 82.5163
RA_OF_ASC_NODE = 270.1133
ARG_OF_PERICENTER = 59.4833
MEAN_ANOMALY   = 300.8301

EPHEMERIS_TYPE = 0
CLASSIFICATION_TYPE = U
NORAD_CAT_ID   = 22286
ELEMENT_SET_NO = 999
REV_AT_EPOCH   = 77093
BSTAR          = .15966E-3
MEAN_MOTION_DOT = .1871E-4
MEAN_MOTION_DDOT = 0

