SL-14 R/B               
1 21423U 91042B   26034.11664678  .00000387  00000+0  46009-4 0  9992
2 21423  82.4904 252.6104 0017032 359.9963   0.1247 14.81795955847959
ERS-1                   
1 21574U 91050A   26034.49764450  .00000393  00000+0  14046-3 0  9990
2 21574  98.7896  51.8725 0031044 304.8352  54.9916 14.39420049810811
ARIANE 40 R/B           
1 21610U 91050F   26034.42183897  .00000339  00000+0  11406-3 0  9991
2 21610  98.2084  87.9324 0003509 158.5366 201.5973 14.42866838814052
INTERCOSMOS 25          
1 21819U 91086A   26034.31142947  .00000723  00000+0  13940-3 0  9992
2 21819  82.6090 330.7826 1486539 191.0018 165.4870 12.11905617492529
SL-8 R/B                
1 21876U 92008B   26034.26527729  .00000080  00000+0  66673-4 0  9997
2 21876  82.9274 293.3861 0033565 229.6514 247.6008 13.75969182704684
SL-8 R/B                
1 21938U 92020B   26034.50568162  .00000114  00000+0  10214-3 0  9990
2 21938  82.9321 179.1348 0029612  35.5000  30.3648 13.75544000696437
USA 81                  
1 21949U 92023A   26034.42836626  .00000240  00000+0  81503-4 0  9999
2 21949  85.0119 151.1954 0002480 108.0803 252.0660 14.32354371 89888
COSMOS 2219             
1 22219U 92076A   26034.49576831 -.00000213  00000+0 -86780-4 0  9998
2 22219  71.0591  89.5541 0020560 254.3919 105.4935 14.14077549713548
SL-16 R/B               
1 22220U 92076B   26034.40708422  .00000295  00000+0  17069-3 0  9995
2 22220  70.9984 260.5906 0011884 156.6013  16.9312 14.16853135716978
COSMOS 2221             
1 22236U 92080A   26034.26059519  .00002487  00000+0  21890-3 0  9999
2 22236  82.5067 312.0516 0013290 313.9635  46.0490 14.96055249775645
SL-16 R/B               
1 22285U 92093B   26034.46442442 -.00000225  00000+0 -90658-4 0  9999
2 22285  71.0206  76.1169 0005012 329.3833  30.6997 14.15442044708318
COSMOS 2228             
1 22286U 92094A   26034.43311939  .00001871  00000+0  15966-3 0  9998
2 22286  82.5163 270.1133 0019393  59.4833 300.8301 14.97029591770939
